[{"OBJECT_NAME":"STARLINK-5885","OBJECT_ID":"2023-058AM","EPOCH":"2026-03-09T21:32:14.476992","MEAN_MOTION":15.01261956,"ECCENTRICITY":0.00029947,"INCLINATION":97.6049,"RA_OF_ASC_NODE":70.4347,"ARG_OF_PERICENTER":117.4705,"MEAN_ANOMALY":242.6825,"EPHEMERIS_TYPE":0,"CLASSIFICATION_TYPE":"U","NORAD_CAT_ID":56352,"ELEMENT_SET_NO":999,"REV_AT_EPOCH":15816,"BSTAR":1.6721025e-5,"MEAN_MOTION_DOT":1.56e-6,"MEAN_MOTION_DDOT":0},{"OBJECT_NAME":"COSMOS 374 DEB","OBJECT_ID":"1970-089D","EPOCH":"2026-03-09T23:15:59.694624","MEAN_MOTION":14.41356541,"ECCENTRICITY":0.03141885,"INCLINATION":62.9412,"RA_OF_ASC_NODE":312.2031,"ARG_OF_PERICENTER":321.7041,"MEAN_ANOMALY":36.2082,"EPHEMERIS_TYPE":0,"CLASSIFICATION_TYPE":"U","NORAD_CAT_ID":4617,"ELEMENT_SET_NO":999,"REV_AT_EPOCH":75367,"BSTAR":0.00087541889,"MEAN_MOTION_DOT":4.985e-5,"MEAN_MOTION_DDOT":0}]
